{"spkid": "20471240", "covariance": {"epoch": "2457098.5", "data": [["3.446408481698742E-16", "-4.667281989483371E-16", "-8.654982999062561E-14", "1.221981063556981E-14", "-8.363758040357181E-14", "-6.112182298448965E-15"], ["-4.667281989483371E-16", "6.388534527823166E-16", "1.158109140909172E-13", "-7.153971738375074E-15", "1.062077082354005E-13", "8.383278935443509E-15"], ["-8.654982999062561E-14", "1.158109140909172E-13", "6.287331451420694E-11", "-8.02865155241716E-12", "6.096869082246875E-11", "2.762692408206531E-12"], ["1.221981063556981E-14", "-7.153971738375074E-15", "-8.02865155241716E-12", "4.364984028433896E-9", "-4.360846242288825E-9", "9.45736382641761E-11"], ["-8.363758040357181E-14", "1.062077082354005E-13", "6.096869082246875E-11", "-4.360846242288825E-9", "4.406010192630721E-9", "-9.153446428190194E-11"], ["-6.112182298448965E-15", "8.383278935443509E-15", "2.762692408206531E-12", "9.45736382641761E-11", "-9.153446428190194E-11", "6.308107333679195E-12"]], "elements": [{"units": null, "title": "eccentricity", "value": ".3028838799218415", "name": "e", "sigma": 1.85645050612688e-08, "label": "e"}, {"units": "au", "value": ".9025073897844148", "title": "perihelion distance", "name": "q", "sigma": 2.52755504941498e-08, "label": "q"}, {"name": "tp", "sigma": 7.92926948174969e-06, "value": "2457157.675625802324", "title": "time of perihelion passage", "units": "TDB", "label": "tp"}, {"label": "node", "value": "105.7565481793598", "title": "longitude of the ascending node", "units": "deg", "sigma": 6.60680257646155e-05, "name": "om"}, {"units": "deg", "title": "argument of perihelion", "value": "308.2687363530952", "sigma": 6.63777838785743e-05, "name": "w", "label": "peri"}, {"label": "i", "units": "deg", "title": "inclination", "value": "1.665052549928546", "name": "i", "sigma": 2.51159457987932e-06}], "labels": ["e", "q", "tp", "node", "peri", "i"]}, "elements": [{"label": "e", "title": "eccentricity", "value": ".3024078007181411", "units": null, "name": "e", "sigma": "1.8597E-8"}, {"sigma": "3.9492E-9", "name": "a", "title": "semi-major axis", "value": "1.292907579767755", "units": "au", "label": "a"}, {"label": "q", "units": "au", "title": "perihelion distance", "value": ".9019222420383733", "name": "q", "sigma": "2.538E-8"}, {"label": "i", "title": "inclination; angle with respect to x-y ecliptic plane", "value": "1.66187702477256", "units": "deg", "sigma": "2.5054E-6", "name": "i"}, {"label": "node", "title": "longitude of the ascending node", "value": "105.3512163674199", "units": "deg", "sigma": "6.6426E-5", "name": "om"}, {"title": "argument of perihelion", "value": "308.8149494118343", "units": "deg", "sigma": "6.6754E-5", "name": "w", "label": "peri"}, {"units": "deg", "title": "mean anomaly", "value": "189.5689190544229", "sigma": "1.4659E-5", "name": "ma", "label": "M"}, {"name": "tp", "sigma": "2.2954E-5", "value": "2461454.711941152932", "title": "time of perihelion passage", "units": "TDB", "label": "tp"}, {"title": "sidereal orbital period", "value": "536.9695381107103", "units": "d", "name": "per", "sigma": "2.4603E-6", "label": "period"}, {"units": "deg/d", "value": ".6704290922472711", "title": "mean motion", "name": "n", "sigma": "3.0717E-9", "label": "n"}, {"sigma": "5.1434E-9", "name": "ad", "title": "aphelion distance", "value": "1.683892917497136", "units": "au", "label": "Q"}], "epoch": "2461200.5"}